NUSAT-1 (FRESCO)        
1 41557U 16033B   21317.85842050  .00003804  00000-0  13142-3 0  9990
2 41557  97.3930  51.0381 0013975  68.0533  50.2528 15.30460934304377
BEESAT-4                
1 41619U 16040W   21317.90478326  .00003020  00000-0  11798-3 0  9999
2 41619  97.2514   9.7366 0011084 154.5947 205.5839 15.26575468287807
CAS-2T & KS-1Q          
1 41847U 16066G   21317.91225609  .00000197  00000-0  38927-4 0  9991
2 41847  98.5832  17.5273 0365785 134.0493 229.1446 14.38282948263361
NAYIF-1 (EO-88)         
1 42017U 17008BX  21317.93725006  .00003351  00000-0  12024-3 0  9990
2 42017  97.3002  22.8217 0004313 307.0490  53.0356 15.29377631264090
ZHUHAI-1 02 (CAS-4B)    
1 42759U 17034B   21317.83082302  .00000992  00000-0  72355-4 0  9998
2 42759  43.0172  79.6900 0008226   8.7909 127.1257 15.10536192243735
ZHUHAI-1 01 (CAS-4A)    
1 42761U 17034D   21317.81318668  .00001152  00000-0  81661-4 0  9995
2 42761  43.0173  78.7309 0008619  10.4429 125.6766 15.10624030243732
MAX VALIER SAT          
1 42778U 17036P   21317.68855051  .00001990  00000-0  84175-4 0  9995
2 42778  97.2379   1.3112 0011943  18.3558 341.8109 15.24285346244010
RADFXSAT (FOX-1B)       
1 43017U 17073E   21317.71101174  .00000868  00000-0  71479-4 0  9993
2 43017  97.6925 215.6862 0253709 172.8806 187.6123 14.79942495215193
FOX-1D (AO-92)          
1 43137U 18004AC  21317.87997682  .00002191  00000-0  87818-4 0  9990
2 43137  97.3941  30.3355 0009720  51.6059 308.6051 15.26053258213440
DIWATA-2B               
1 43678U 18084H   21317.15884118 -.00000059  00000-0 -15331-7 0  9995
2 43678  97.9438  83.3817 0008444 282.1706  77.8572 14.91828692165600
ES'HAIL 2               
1 43700U 18090A   21317.91299314  .00000140  00000-0  00000-0 0  9999
2 43700   0.0029  83.5004 0002384 169.9037 154.3208  1.00273479 10860
FOX-1CLIFF (AO-95)      
1 43770U 18099N   21317.93275895  .00000962  00000-0  91843-4 0  9996
2 43770  97.6500  24.7089 0012916 278.0217  81.9539 14.95538368160796
ITASAT 1                
1 43786U 18099AE  21317.82380162  .00000455  00000-0  45844-4 0  9992
2 43786  97.6526  25.3844 0013504 271.3163  88.6511 14.95806941160819
JY1SAT (JO-97)          
1 43803U 18099AX  21317.76120659  .00000350  00000-0  36202-4 0  9990
2 43803  97.6488  25.0619 0013496 271.2199  88.7476 14.96099113160818
UWE-4                   
1 43880U 18111E   21317.71111673  .00000398  00000-0  39493-4 0  9998
2 43880  97.6774 222.8162 0011557 331.8309  28.2286 14.97121326157416
NEXUS (FO-99)           
1 43937U 19003F   21317.68418599  .00002998  00000-0  11613-3 0  9996
2 43937  97.1603 354.8235 0021997 198.5990 161.4447 15.26688116157029
PSAT2 (NO-104)          
1 44354U 19036R   21317.92257688  .00024253  00000-0  29583-3 0  9996
2 44354  28.5243 206.5689 0301465 102.9679 260.4754 15.19978695131682
BRICSAT2 (NO-103)       
1 44355U 19036S   21317.79435175  .00060659 -56365-5  50936-3 0  9998
2 44355  28.5248 132.7218 0208496 223.3183 135.0855 15.44856159132413
JAISAT-1                
1 44419U 19038F   21317.87077895  .00001770  00000-0  99521-4 0  9993
2 44419  97.6084 282.2296 0021445 152.4992 207.7379 15.14427179130401
DUCHIFAT-3              
1 44854U 19089C   21317.34176093  .00001204  00000-0  10176-3 0  9994
2 44854  36.9665 299.9859 0008897 268.9340  91.0373 14.99789077105467
CAS-6 (TO-108)          
1 44881U 19093C   21317.86874688  .00000205  00000-0  32800-4 0  9990
2 44881  97.9139  34.9888 0015488 161.9673 198.2078 14.81509692102850
RS-44 & BREEZE-KM R/B   
1 44909U 19096E   21317.87775476 -.00000002  00000-0 -62183-4 0  9994
2 44909  82.5248  13.5254 0218503 103.7364 258.8162 12.79711185 87931
ORBITAL FACTORY 2 (OF-2)
1 45113U 19071C   21317.93775990  .00004791  00000-0  13842-3 0  9997
2 45113  51.6428  31.9644 0011461 111.2893 248.9315 15.37520474100154
HUSKYSAT-1 (HO-107)     
1 45119U 19071J   21317.62679588  .00005470  00000-0  15712-3 0  9998
2 45119  51.6423  32.8778 0011034 106.9687 253.2506 15.37403118100102
BY70-2                  
1 45857U 20042B   21317.86372151  .00002258  00000-0  32306-3 0  9998
2 45857  97.9746  32.0300 0012207  95.4771 264.7796 14.77562008 73603
SALSAT                  
1 46495U 20068K   21317.93514646  .00000103  00000-0  12081-4 0  9996
2 46495  97.7044 254.6381 0015137 290.4497  69.5099 15.03660264 61796
BY70-3                  
1 46839U 20079N   21317.86738259  .00005900  00000-0  17480-3 0  9997
2 46839  97.2264  28.7673 0008000  41.4931  69.7844 15.35205947 57118
RADFXSAT-2 (AO-109)     
1 47311U 21002C   21317.94821201  .00002143  00000-0  10233-3 0  9994
2 47311  60.6854  91.3163 0037610 123.7456 236.7224 15.22387583 45622
UVSQ-SAT                
1 47438U 21006AB  21317.68284569  .00001506  00000-0  87397-4 0  9997
2 47438  97.4699  16.1258 0011266 306.9230  53.0969 15.13623473 44627
DIY-1 (ARDUIQUBE)       
1 47963U 21022AH  21317.69203211  .00003170  00000-0  20745-3 0  9996
2 47963  97.5446 217.3515 0019579 149.7353 210.5010 15.08330167 34384
